OBJECT_NAME,OBJECT_ID,EPOCH,MEAN_MOTION,ECCENTRICITY,INCLINATION,RA_OF_ASC_NODE,ARG_OF_PERICENTER,MEAN_ANOMALY,EPHEMERIS_TYPE,CLASSIFICATION_TYPE,NORAD_CAT_ID,ELEMENT_SET_NO,REV_AT_EPOCH,BSTAR,MEAN_MOTION_DOT,MEAN_MOTION_DDOT
CHUANGXIN 1-02 (CX-1-02),2008-056B,2026-07-12T04:53:57.153408,14.30157560,.0015458,98.6135,219.2203,68.6071,291.6759,0,U,33434,999,92219,-.33658E-4,-.131E-5,0
STARS (KUKAI),2009-002G,2026-07-12T02:28:50.212416,14.95915731,.0009904,98.1554,141.4328,87.5755,272.6598,0,U,33498,999,94220,.14254E-3,.1533E-4,0
KKS-1 (KISEKI),2009-002H,2026-07-12T03:37:36.151104,14.83184830,.0007173,98.1178,115.9889,199.3945,160.6996,0,U,33499,999,93989,.89727E-4,.677E-5,0
UK-DMC 2,2009-041C,2026-07-12T04:07:45.800832,14.76090773,.0001519,97.8859,327.5325,99.6133,260.5249,0,U,35683,999,91025,.24592E-4,.12E-5,0
OCEANSAT-2,2009-051A,2026-07-12T05:16:19.634880,13.99656419,.0017149,98.2318,177.5720,162.0956,198.0819,0,U,35931,999,88283,-.69744E-4,-.14E-5,0
SWISSCUBE,2009-051B,2026-07-12T05:01:01.202880,14.62527427,.0007715,98.4012,101.5313,127.0520,233.1388,0,U,35932,999,89281,.10865E-3,.502E-5,0
BEESAT-1,2009-051C,2026-07-11T16:24:52.965504,14.61758535,.00059254,98.3940,100.5811,139.0777,221.0870,0,U,35933,999,89276,.93456424E-4,.417E-5,0
ITUPSAT1,2009-051E,2026-07-11T23:17:18.975264,14.60475983,.0007861,98.4023,100.0372,152.4089,207.7529,0,U,35935,999,89235,.90106E-4,.388E-5,0
DMSP 5D-3 F18 (USA 210),2009-057A,2026-07-12T04:11:10.389120,14.14910371,.0011048,98.9054,173.8911,173.9451,186.1857,0,U,35951,999,86312,.10864E-3,.165E-5,0
PROBA-2,2009-059B,2026-07-11T10:47:08.882304,14.54872679,.00127423,98.2457,15.4667,200.5903,159.4782,0,U,36037,999,88505,.34680705E-4,.104E-5,0
YAOGAN-7,2009-069A,2026-07-12T03:17:47.797728,14.78033793,.002369,98.0039,78.8467,321.6496,38.3029,0,U,36110,999,89331,.37818E-4,.221E-5,0
XIWANG-1 (HOPE-1),2009-072B,2026-07-12T04:07:05.627424,13.16438625,.0007441,100.4028,146.6056,171.5395,188.5845,0,U,36122,999,79629,-.44482E-3,-.214E-5,0
COSMOS 2463,2010-017A,2026-07-12T01:20:04.888032,13.71667084,.0037417,82.9584,231.4343,62.3540,315.6405,0,U,36519,999,81134,.37201E-4,.49E-6,0
CARTOSAT-2B,2010-035A,2026-07-12T04:11:49.135200,14.78615851,.0012538,97.9946,243.5628,107.9716,252.2862,0,U,36795,999,86354,.85297E-4,.573E-5,0
TISAT 1,2010-035E,2026-07-11T19:17:08.168928,15.32645486,.00042402,98.0706,141.5552,126.9872,233.1757,0,U,36799,999,87147,.38373371E-3,.12017E-3,0
YAOGAN-10,2010-038A,2026-07-12T05:07:28.972128,14.85421689,.0001611,97.8976,216.4181,82.5906,6.0136,0,U,36834,999,86092,.64703E-4,.503E-5,0
SHIJIAN-6 04B (SJ-6 04B),2010-051B,2026-07-12T04:23:10.300704,14.99383415,.0007372,97.8743,198.8597,221.8158,138.2502,0,U,37180,999,85942,.29054E-4,.294E-5,0
FENGYUN 3B,2010-059A,2026-07-12T04:50:42.090720,14.14847303,.0023079,98.9615,239.3207,114.8017,332.6984,0,U,37214,999,81096,.14542E-3,.236E-5,0
COSMO-SKYMED 4,2010-060A,2026-07-12T03:39:43.834752,14.82148592,.000153,97.8894,16.3915,83.4209,276.7178,0,U,37216,999,84826,.67985E-4,.489E-5,0
O/OREOS (USA 219),2010-062C,2026-07-11T23:22:38.985312,14.93844125,.0013807,71.9695,24.1866,11.3955,348.7525,0,U,37224,999,12034,.11921E-3,.1204E-4,0
RESOURCESAT-2,2011-015A,2026-07-12T03:29:13.779168,14.21605413,.0011416,98.7633,260.4133,179.6595,180.4592,0,U,37387,999,78972,.24924E-4,.1E-6,0
YOUTHSAT,2011-015B,2026-07-11T20:39:02.016864,14.25639764,.00131618,98.3700,165.8042,269.9083,147.1277,0,U,37388,999,79115,.54236471E-4,.87E-6,0
APRIZESAT 6,2011-044F,2026-07-11T17:43:11.020800,14.76953608,.00433395,98.2343,103.7374,9.2855,45.5114,0,U,37793,999,80077,.63523811E-4,.397E-5,0
JUGNU,2011-058B,2026-07-12T01:41:53.186208,14.13782974,.0018468,19.9591,157.2468,351.9537,74.6963,0,U,37839,999,76255,.45779E-4,.355E-5,0
SRMSAT,2011-058D,2026-07-12T05:43:42.959424,14.11580711,.0011854,19.9714,267.8421,118.8974,271.3920,0,U,37841,999,76136,.45879E-4,.35E-5,0
